ORBCOMM FM114           
1 41179U 15081A   26065.51777328  .00000860  00000+0  21870-3 0  9990
2 41179  47.0042 127.3664 0001242  95.3040 264.7988 14.58724342542768
ORBCOMM FM119           
1 41180U 15081B   26065.37995199  .00001018  00000+0  25248-3 0  9993
2 41180  47.0012  37.3761 0001008 223.8840 136.1965 14.58667361543991
ORBCOMM FM105           
1 41181U 15081C   26065.28568289  .00000379  00000+0  15108-3 0  9993
2 41181  47.0012  68.4660 0001158  23.4168 336.6765 14.45490497538661
ORBCOMM FM110           
1 41182U 15081D   26065.37000628  .00001288  00000+0  30943-3 0  9996
2 41182  47.0015 127.5379 0003493 305.6773  54.3787 14.58728387542614
ORBCOMM FM118           
1 41183U 15081E   26065.61006893  .00001301  00000+0  31235-3 0  9995
2 41183  47.0036 126.7177 0003948 276.3048  83.7388 14.58725445542759
ORBCOMM FM112           
1 41184U 15081F   26065.61303484  .00001064  00000+0  26194-3 0  9996
2 41184  47.0000  35.2040 0000945  73.9376 286.1614 14.58724069543970
ORBCOMM FM113           
1 41185U 15081G   26065.31627481  .00001011  00000+0  25070-3 0  9994
2 41185  47.0017  36.9745 0000572  85.9592 274.1359 14.58724225543919
ORBCOMM FM115           
1 41186U 15081H   26065.81111039  .00001224  00000+0  26979-3 0  9992
2 41186  46.9971 229.9464 0001323 216.3328 143.7470 14.63114348546228
ORBCOMM FM108           
1 41187U 15081J   26065.07342988  .00001073  00000+0  26397-3 0  9996
2 41187  47.0056 309.6634 0002156  74.4398 285.6726 14.58735896545023
ORBCOMM FM117           
1 41188U 15081K   26065.65540086  .00001200  00000+0  29090-3 0  9995
2 41188  47.0018 305.5802 0002494  88.2098 271.9073 14.58729973545155
ORBCOMM FM116           
1 41189U 15081L   26065.63619823  .00001229  00000+0  29710-3 0  9990
2 41189  47.0032  35.4523 0002587 302.5093  57.5543 14.58720337543963
